{"type": "FeatureCollection", "features": [ {"type": "Feature", "properties": {"norad_id": 30597, "name": "FENGYUN 1C DEB", "group": "fengyun-1c-debris", "lat": 55.32613011573351, "lon": 120.90231033506763, "alt_km": 555.3778087160772, "timestamp": "2025-12-16T17:51:11.208835+00:00", "meta": {"OBJECT_NAME": "FENGYUN 1C DEB", "OBJECT_ID": "1999-025AMC", "EPOCH": "2025-12-15T18:46:45.625728", "MEAN_MOTION": 14.92734247, "ECCENTRICITY": 0.00459818, "INCLINATION": 98.9419, "RA_OF_ASC_NODE": 286.6547, "ARG_OF_PERICENTER": 153.5972, "MEAN_ANOMALY": 206.7601, "EPHEMERIS_TYPE": 0, "CLASSIFICATION_TYPE": "U", "NORAD_CAT_ID": 30597, "ELEMENT_SET_NO": 999, "REV_AT_EPOCH": 98582, "BSTAR": 0.0027772236, "MEAN_MOTION_DOT": 0.00029307, "MEAN_MOTION_DDOT": 0}, "tle": {"line1": "1 30597U 99025AMC 25349.78247252  .00029307  00000+0  27772-2 0  9996", "line2": "2 30597  98.9419 286.6547 0045981 153.5972 206.7601 14.92734247985820"}}, "geometry": {"type": "Point", "coordinates": [120.90231033506763, 55.32613011573351]}}, {"type": "Feature", "properties": {"norad_id": 30599, "name": "FENGYUN 1C DEB", "group": "fengyun-1c-debris", "lat": -55.23901797283161, "lon": 169.66082659280204, "alt_km": 853.6170766976365, "timestamp": "2025-12-16T17:51:11.208846+00:00", "meta": {"OBJECT_NAME": "FENGYUN 1C DEB", "OBJECT_ID": "1999-025AME", "EPOCH": "2025-12-15T00:07:38.684640", "MEAN_MOTION": 14.19703578, "ECCENTRICITY": 0.03021419, "INCLINATION": 98.6042, "RA_OF_ASC_NODE": 0.5695, "ARG_OF_PERICENTER": 338.2134, "MEAN_ANOMALY": 20.6413, "EPHEMERIS_TYPE": 0, "CLASSIFICATION_TYPE": "U", "NORAD_CAT_ID": 30599, "ELEMENT_SET_NO": 999, "REV_AT_EPOCH": 97199, "BSTAR": 0.00059840454, "MEAN_MOTION_DOT": 1.949e-05, "MEAN_MOTION_DDOT": 0}, "tle": {"line1": "1 30599U 99025AME 25349.00530885  .00001949  00000+0  59840-3 0  9994", "line2": "2 30599  98.6042   0.5695 0302141 338.2134  20.6413 14.19703578971993"}}, "geometry": {"type": "Point", "coordinates": [169.66082659280204, -55.23901797283161]}}, {"type": "Feature", "properties": {"norad_id": 30600, "name": "FENGYUN 1C DEB", "group": "fengyun-1c-debris", "lat": 14.923111691078388, "lon": 117.4693368187624, "alt_km": 784.8666397194966, "timestamp": "2025-12-16T17:51:11.208856+00:00", "meta": {"OBJECT_NAME": "FENGYUN 1C DEB", "OBJECT_ID": "1999-025AMF", "EPOCH": "2025-12-15T06:55:10.525728", "MEAN_MOTION": 14.07550874, "ECCENTRICITY": 0.03275569, "INCLINATION": 98.3872, "RA_OF_ASC_NODE": 293.8614, "ARG_OF_PERICENTER": 240.0907, "MEAN_ANOMALY": 116.7357, "EPHEMERIS_TYPE": 0, "CLASSIFICATION_TYPE": "U", "NORAD_CAT_ID": 30600, "ELEMENT_SET_NO": 999, "REV_AT_EPOCH": 94468, "BSTAR": 0.0021385691, "MEAN_MOTION_DOT": 5.853e-05, "MEAN_MOTION_DDOT": 0}, "tle": {"line1": "1 30600U 99025AMF 25349.28831627  .00005853  00000+0  21386-2 0  9996", "line2": "2 30600  98.3872 293.8614 0327556 240.0907 116.7357 14.07550874944683"}}, "geometry": {"type": "Point", "coordinates": [117.4693368187624, 14.923111691078388]}}, {"type": "Feature", "properties": {"norad_id": 30602, "name": "FENGYUN 1C DEB", "group": "fengyun-1c-debris", "lat": -49.84036210186435, "lon": -83.92937317818405, "alt_km": 606.6599028800956, "timestamp": "2025-12-16T17:51:11.208867+00:00", "meta": {"OBJECT_NAME": "FENGYUN 1C DEB", "OBJECT_ID": "1999-025AMH", "EPOCH": "2025-12-15T05:44:09.716640", "MEAN_MOTION": 14.91654414, "ECCENTRICITY": 0.00114771, "INCLINATION": 99.0325, "RA_OF_ASC_NODE": 263.4827, "ARG_OF_PERICENTER": 112.6546, "MEAN_ANOMALY": 40.0761, "EPHEMERIS_TYPE": 0, "CLASSIFICATION_TYPE": "U", "NORAD_CAT_ID": 30602, "ELEMENT_SET_NO": 999, "REV_AT_EPOCH": 97842, "BSTAR": 0.0046770277, "MEAN_MOTION_DOT": 0.00047295, "MEAN_MOTION_DDOT": 0}, "tle": {"line1": "1 30602U 99025AMH 25349.23900135  .00047295  00000+0  46770-2 0  9994", "line2": "2 30602  99.0325 263.4827 0011477 112.6546  40.0761 14.91654414978425"}}, "geometry": {"type": "Point", "coordinates": [-83.92937317818405, -49.84036210186435]}}, {"type": "Feature", "properties": {"norad_id": 30603, "name": "FENGYUN 1C DEB", "group": "fengyun-1c-debris", "lat": 38.08976359896433, "lon": -160.09855587650924, "alt_km": 864.0591747044273, "timestamp": "2025-12-16T17:51:11.208877+00:00", "meta": {"OBJECT_NAME": "FENGYUN 1C DEB", "OBJECT_ID": "1999-025AMJ", "EPOCH": "2025-12-14T01:15:01.326816", "MEAN_MOTION": 13.84126342, "ECCENTRICITY": 0.01833825, "INCLINATION": 98.4097, "RA_OF_ASC_NODE": 10.8313, "ARG_OF_PERICENTER": 201.768, "MEAN_ANOMALY": 215.8001, "EPHEMERIS_TYPE": 0, "CLASSIFICATION_TYPE": "U", "NORAD_CAT_ID": 30603, "ELEMENT_SET_NO": 999, "REV_AT_EPOCH": 94894, "BSTAR": 0.001521021, "MEAN_MOTION_DOT": 1.892e-05, "MEAN_MOTION_DDOT": 0}, "tle": {"line1": "1 30603U 99025AMJ 25348.05209869  .00001892  00000+0  15210-2 0  9998", "line2": "2 30603  98.4097  10.8313 0183382 201.7680 215.8001 13.84126342948941"}}, "geometry": {"type": "Point", "coordinates": [-160.09855587650924, 38.08976359896433]}}, {"type": "Feature", "properties": {"norad_id": 30604, "name": "FENGYUN 1C DEB", "group": "fengyun-1c-debris", "lat": 17.68232139413927, "lon": 22.70510402004529, "alt_km": 674.1987984926536, "timestamp": "2025-12-16T17:51:11.208889+00:00", "meta": {"OBJECT_NAME": "FENGYUN 1C DEB", "OBJECT_ID": "1999-025AMK", "EPOCH": "2025-12-15T20:41:42.107424", "MEAN_MOTION": 14.23615208, "ECCENTRICITY": 0.02094799, "INCLINATION": 98.4026, "RA_OF_ASC_NODE": 24.5631, "ARG_OF_PERICENTER": 357.7304, "MEAN_ANOMALY": 183.7739, "EPHEMERIS_TYPE": 0, "CLASSIFICATION_TYPE": "U", "NORAD_CAT_ID": 30604, "ELEMENT_SET_NO": 999, "REV_AT_EPOCH": 97883, "BSTAR": 0.00028097043, "MEAN_MOTION_DOT": 7.57e-06, "MEAN_MOTION_DDOT": 0}, "tle": {"line1": "1 30604U 99025AMK 25349.86229291  .00000757  00000+0  28097-3 0  9997", "line2": "2 30604  98.4026  24.5631 0209479 357.7304 183.7739 14.23615208978830"}}, "geometry": {"type": "Point", "coordinates": [22.70510402004529, 17.68232139413927]}}, {"type": "Feature", "properties": {"norad_id": 30606, "name": "FENGYUN 1C DEB", "group": "fengyun-1c-debris", "lat": 41.20480672750509, "lon": -172.04428683894602, "alt_km": 549.7526633736243, "timestamp": "2025-12-16T17:51:11.208902+00:00", "meta": {"OBJECT_NAME": "FENGYUN 1C DEB", "OBJECT_ID": "1999-025AMM", "EPOCH": "2025-12-15T23:23:59.636256", "MEAN_MOTION": 14.57658226, "ECCENTRICITY": 0.02142526, "INCLINATION": 98.0962, "RA_OF_ASC_NODE": 0.0473, "ARG_OF_PERICENTER": 127.1225, "MEAN_ANOMALY": 298.1372, "EPHEMERIS_TYPE": 0, "CLASSIFICATION_TYPE": "U", "NORAD_CAT_ID": 30606, "ELEMENT_SET_NO": 999, "REV_AT_EPOCH": 99289, "BSTAR": 0.00040876211, "MEAN_MOTION_DOT": 2.504e-05, "MEAN_MOTION_DDOT": 0}, "tle": {"line1": "1 30606U 99025AMM 25349.97499579  .00002504  00000+0  40876-3 0  9990", "line2": "2 30606  98.0962   0.0473 0214252 127.1225 298.1372 14.57658226992896"}}, "geometry": {"type": "Point", "coordinates": [-172.04428683894602, 41.20480672750509]}}, {"type": "Feature", "properties": {"norad_id": 30608, "name": "FENGYUN 1C DEB", "group": "fengyun-1c-debris", "lat": 14.239776130791611, "lon": -124.37049127552352, "alt_km": 786.0752683984074, "timestamp": "2025-12-16T17:51:11.208913+00:00", "meta": {"OBJECT_NAME": "FENGYUN 1C DEB", "OBJECT_ID": "1999-025AMP", "EPOCH": "2025-12-15T18:04:35.368896", "MEAN_MOTION": 14.28493815, "ECCENTRICITY": 0.00161477, "INCLINATION": 98.7107, "RA_OF_ASC_NODE": 52.4111, "ARG_OF_PERICENTER": 170.4608, "MEAN_ANOMALY": 303.1963, "EPHEMERIS_TYPE": 0, "CLASSIFICATION_TYPE": "U", "NORAD_CAT_ID": 30608, "ELEMENT_SET_NO": 999, "REV_AT_EPOCH": 97482, "BSTAR": 0.00092574082, "MEAN_MOTION_DOT": 2.278e-05, "MEAN_MOTION_DDOT": 0}, "tle": {"line1": "1 30608U 99025AMP 25349.75318714  .00002278  00000+0  92574-3 0  9999", "line2": "2 30608  98.7107  52.4111 0016147 170.4608 303.1963 14.28493815974820"}}, "geometry": {"type": "Point", "coordinates": [-124.37049127552352, 14.239776130791611]}}, {"type": "Feature", "properties": {"norad_id": 30609, "name": "FENGYUN 1C DEB", "group": "fengyun-1c-debris", "lat": 12.265028314424221, "lon": 89.05693142710051, "alt_km": 906.2049198839559, "timestamp": "2025-12-16T17:51:11.208923+00:00", "meta": {"OBJECT_NAME": "FENGYUN 1C DEB", "OBJECT_ID": "1999-025AMQ", "EPOCH": "2025-12-15T17:14:58.711776", "MEAN_MOTION": 14.11237791, "ECCENTRICITY": 0.01196335, "INCLINATION": 98.5683, "RA_OF_ASC_NODE": 266.2001, "ARG_OF_PERICENTER": 44.6299, "MEAN_ANOMALY": 316.4429, "EPHEMERIS_TYPE": 0, "CLASSIFICATION_TYPE": "U", "NORAD_CAT_ID": 30609, "ELEMENT_SET_NO": 999, "REV_AT_EPOCH": 95770, "BSTAR": 0.0017726031, "MEAN_MOTION_DOT": 3.381e-05, "MEAN_MOTION_DDOT": 0}, "tle": {"line1": "1 30609U 99025AMQ 25349.71873509  .00003381  00000+0  17726-2 0  9995", "line2": "2 30609  98.5683 266.2001 0119633  44.6299 316.4429 14.11237791957706"}}, "geometry": {"type": "Point", "coordinates": [89.05693142710051, 12.265028314424221]}}, {"type": "Feature", "properties": {"norad_id": 30612, "name": "FENGYUN 1C DEB", "group": "fengyun-1c-debris", "lat": -24.625886210440875, "lon": -14.998480105992819, "alt_km": 460.1075664304208, "timestamp": "2025-12-16T17:51:11.208933+00:00", "meta": {"OBJECT_NAME": "FENGYUN 1C DEB", "OBJECT_ID": "1999-025AMT", "EPOCH": "2025-12-15T21:50:29.678208", "MEAN_MOTION": 15.30490815, "ECCENTRICITY": 0.0028379, "INCLINATION": 99.0823, "RA_OF_ASC_NODE": 339.7777, "ARG_OF_PERICENTER": 338.3907, "MEAN_ANOMALY": 85.2644, "EPHEMERIS_TYPE": 0, "CLASSIFICATION_TYPE": "U", "NORAD_CAT_ID": 30612, "ELEMENT_SET_NO": 999, "REV_AT_EPOCH": 306, "BSTAR": 0.002833661, "MEAN_MOTION_DOT": 0.00085344, "MEAN_MOTION_DDOT": 0}, "tle": {"line1": "1 30612U 99025AMT 25349.91006572  .00085344  00000+0  28337-2 0  9998", "line2": "2 30612  99.0823 339.7777 0028379 338.3907  85.2644 15.30490815  3064"}}, "geometry": {"type": "Point", "coordinates": [-14.998480105992819, -24.625886210440875]}}]}